IRIDIUM 171             
1 43929U 19002H   23338.19355186  .00000372  00000+0  12571-3 0  9996
2 43929  86.3996  20.7745 0002147  91.1777 268.9665 14.34218645256239
IRIDIUM 170             
1 43930U 19002J   23338.58087603  .00001705  00000+0  26665-3 0  9997
2 43930  86.6116  20.4630 0002504  95.1847 264.9656 14.72225662263072
IRIDIUM 167             
1 43931U 19002K   23338.53605045  .00000460  00000+0  15729-3 0  9995
2 43931  86.3987  20.4422 0002147  89.5939 270.5503 14.34215044256287
IRIDIUM 181             
1 56726U 23068S   23338.70365593  .00000763  00000+0  21945-3 0  9991
2 56726  86.8639  64.6138 0003020  81.4298 278.7246 14.43597251 28932
IRIDIUM 177             
1 56727U 23068T   23338.24798075  .00002421  00000+0  31538-3 0  9998
2 56727  86.1993  48.3759 0002160  94.9008 265.2459 14.80204507 29397
IRIDIUM 174             
1 56728U 23068U   23338.64813283  .00002647  00000+0  34507-3 0  9991
2 56728  86.1999  48.2735 0002031  89.5562 270.5892 14.80208603 29457
IRIDIUM 178             
1 56729U 23068V   23338.64279136  .00002473  00000+0  32210-3 0  9991
2 56729  86.5793  56.4704 0002181  96.5368 263.6102 14.80217975 29458
IRIDIUM 179             
1 56730U 23068W   23338.29932139  .00002443  00000+0  31824-3 0  9990
2 56730  86.6800  58.2837 0002093  95.7148 264.4312 14.80218453 29405
